{
  "type": "FeatureCollection",
  "features": [
    {
      "type": "Feature",
      "properties": {
        "norad_id": 19071,
        "name": "OSCAR 32",
        "group": "nnss",
        "lat": -87.29425486576852,
        "lon": -170.60894952240952,
        "alt_km": 1123.0336434713481,
        "timestamp": "2025-12-03T13:52:09.830130+00:00",
        "meta_object_name": "OSCAR 32",
        "meta_object_id": "1988-033B",
        "meta_epoch": "2025-12-03T08:58:34.376736",
        "meta_mean_motion": 13.2795205,
        "meta_eccentricity": 0.0187576,
        "meta_inclination": 90.3227,
        "meta_ra_of_asc_node": 16.2333,
        "meta_arg_of_pericenter": 192.8373,
        "meta_mean_anomaly": 178.2823,
        "meta_ephemeris_type": 0,
        "meta_classification_type": "U",
        "meta_norad_cat_id": 19071,
        "meta_element_set_no": 999,
        "meta_rev_at_epoch": 82141,
        "meta_bstar": 0.00018696769,
        "meta_mean_motion_dot": 1.01e-06,
        "meta_mean_motion_ddot": 0,
        "tle_line1": "1 19071U 88033B   25337.37400899  .00000101  00000+0  18697-3 0  9995",
        "tle_line2": "2 19071  90.3227  16.2333 0187576 192.8373 178.2823 13.27952050821419"
      },
      "geometry": {
        "type": "Point",
        "coordinates": [
          -170.60894952240952,
          -87.29425486576852
        ]
      }
    },
    {
      "type": "Feature",
      "properties": {
        "norad_id": 19223,
        "name": "NOVA 2",
        "group": "nnss",
        "lat": -87.48412237895654,
        "lon": -101.42701423844584,
        "alt_km": 1197.4479517898371,
        "timestamp": "2025-12-03T13:52:09.830140+00:00",
        "meta_object_name": "NOVA 2",
        "meta_object_id": "1988-052A",
        "meta_epoch": "2025-12-03T05:33:35.866368",
        "meta_mean_motion": 13.22934133,
        "meta_eccentricity": 0.00313451,
        "meta_inclination": 89.9873,
        "meta_ra_of_asc_node": 78.2842,
        "meta_arg_of_pericenter": 42.5044,
        "meta_mean_anomaly": 17.2622,
        "meta_ephemeris_type": 0,
        "meta_classification_type": "U",
        "meta_norad_cat_id": 19223,
        "meta_element_set_no": 999,
        "meta_rev_at_epoch": 80822,
        "meta_bstar": 0.00016385623,
        "meta_mean_motion_dot": 7.8e-07,
        "meta_mean_motion_ddot": 0,
        "tle_line1": "1 19223U 88052A   25337.23166512  .00000078  00000+0  16386-3 0  9997",
        "tle_line2": "2 19223  89.9873  78.2842 0031345  42.5044  17.2622 13.22934133808220"
      },
      "geometry": {
        "type": "Point",
        "coordinates": [
          -101.42701423844584,
          -87.48412237895654
        ]
      }
    },
    {
      "type": "Feature",
      "properties": {
        "norad_id": 19419,
        "name": "OSCAR 25",
        "group": "nnss",
        "lat": 56.07716512114545,
        "lon": 20.160603199661704,
        "alt_km": 1150.764738699042,
        "timestamp": "2025-12-03T13:52:09.830151+00:00",
        "meta_object_name": "OSCAR 25",
        "meta_object_id": "1988-074A",
        "meta_epoch": "2025-12-03T04:58:49.569888",
        "meta_mean_motion": 13.4262046,
        "meta_eccentricity": 0.00942195,
        "meta_inclination": 90.0357,
        "meta_ra_of_asc_node": 20.2124,
        "meta_arg_of_pericenter": 273.5413,
        "meta_mean_anomaly": 152.8327,
        "meta_ephemeris_type": 0,
        "meta_classification_type": "U",
        "meta_norad_cat_id": 19419,
        "meta_element_set_no": 999,
        "meta_rev_at_epoch": 82512,
        "meta_bstar": 0.00024840668,
        "meta_mean_motion_dot": 1.52e-06,
        "meta_mean_motion_ddot": 0,
        "tle_line1": "1 19419U 88074A   25337.20751817  .00000152  00000+0  24841-3 0  9991",
        "tle_line2": "2 19419  90.0357  20.2124 0094219 273.5413 152.8327 13.42620460825125"
      },
      "geometry": {
        "type": "Point",
        "coordinates": [
          20.160603199661704,
          56.07716512114545
        ]
      }
    },
    {
      "type": "Feature",
      "properties": {
        "norad_id": 19420,
        "name": "OSCAR 31",
        "group": "nnss",
        "lat": -58.93515810713158,
        "lon": 20.62398466467263,
        "alt_km": 1049.7111198461434,
        "timestamp": "2025-12-03T13:52:09.830164+00:00",
        "meta_object_name": "OSCAR 31",
        "meta_object_id": "1988-074B",
        "meta_epoch": "2025-12-03T03:31:40.916640",
        "meta_mean_motion": 13.42582141,
        "meta_eccentricity": 0.00924436,
        "meta_inclination": 90.0372,
        "meta_ra_of_asc_node": 20.5606,
        "meta_arg_of_pericenter": 267.8245,
        "meta_mean_anomaly": 111.3176,
        "meta_ephemeris_type": 0,
        "meta_classification_type": "U",
        "meta_norad_cat_id": 19420,
        "meta_element_set_no": 999,
        "meta_rev_at_epoch": 82522,
        "meta_bstar": 0.00019647534,
        "meta_mean_motion_dot": 1.22e-06,
        "meta_mean_motion_ddot": 0,
        "tle_line1": "1 19420U 88074B   25337.14700135  .00000122  00000+0  19648-3 0  9999",
        "tle_line2": "2 19420  90.0372  20.5606 0092443 267.8245 111.3176 13.42582141825224"
      },
      "geometry": {
        "type": "Point",
        "coordinates": [
          20.62398466467263,
          -58.93515810713158
        ]
      }
    }
  ]
}